STARLINK-1455_new
1 15672C 20035R   21326.10501734  .00008681  00000-0  58170-3 0  3260
2 15672  53.0526 238.2829 0001698  70.5716  11.6216 15.06384426    18
STARLINK-1455_old
1 25672C 20035R   21325.18036986 -.00016462  00000-0 -11030-2 0  3259
2 25672  53.0527 242.4337 0001676  71.4126  33.6080 15.06411985    15
